start=new Date('2022-01-10T00:00:00.000Z').valueOf();
sats=[{"EPHEMERIS_TYPE":"0","MEAN_MOTION":"15.06789894","TLE_LINE1":"1 45068U 20006AA  22009.86984946  .00016481  00000-0  11110-2 0  9994","PERIAPSIS":"544.946","MEAN_ELEMENT_THEORY":"SGP4","INCLINATION":"53.0531","SITE":"AFETR","ECCENTRICITY":"0.00015490","GP_ID":"193555878","LAUNCH_DATE":"2020-01-29","REV_AT_EPOCH":"10766","BSTAR":"0.00111100000000","NORAD_CAT_ID":"45068","FILE":"3268323","ELEMENT_SET_NO":"999","TIME_SYSTEM":"UTC","OBJECT_NAME":"STARLINK-1161","RA_OF_ASC_NODE":"249.3597","MEAN_MOTION_DDOT":"0.0000000000000","EPOCH":"2022-01-09T20:52:34.993344","ARG_OF_PERICENTER":"69.5525","OBJECT_TYPE":"PAYLOAD","APOAPSIS":"547.091","MEAN_ANOMALY":"290.5630","MEAN_MOTION_DOT":"0.00016481","DECAY_DATE":null,"RCS_SIZE":"LARGE","PERIOD":"95.567","CENTER_NAME":"EARTH","OBJECT_ID":"2020-006AA","TLE_LINE2":"2 45068  53.0531 249.3597 0001549  69.5525 290.5630 15.06789894107664","COUNTRY_CODE":"US","SEMIMAJOR_AXIS":"6924.154","REF_FRAME":"TEME","CLASSIFICATION_TYPE":"U"},{"DECAY_DATE":null,"MEAN_MOTION_DOT":"0.00000824","CENTER_NAME":"EARTH","RCS_SIZE":"LARGE","PERIOD":"95.592","OBJECT_ID":"2020-006AD","EPOCH":"2022-01-09T21:57:17.103456","ARG_OF_PERICENTER":"60.7273","APOAPSIS":"548.632","OBJECT_TYPE":"PAYLOAD","MEAN_ANOMALY":"299.3920","REF_FRAME":"TEME","SEMIMAJOR_AXIS":"6925.353","CLASSIFICATION_TYPE":"U","TLE_LINE2":"2 45071  53.0543 249.1616 0002041  60.7273 299.3920 15.06398397107676","COUNTRY_CODE":"US","INCLINATION":"53.0543","SITE":"AFETR","MEAN_ELEMENT_THEORY":"SGP4","ECCENTRICITY":"0.00020410","GP_ID":"193556128","LAUNCH_DATE":"2020-01-29","MEAN_MOTION":"15.06398397","EPHEMERIS_TYPE":"0","PERIAPSIS":"545.805","TLE_LINE1":"1 45071U 20006AD  22009.91478129  .00000824  00000-0  74229-4 0  9991","TIME_SYSTEM":"UTC","FILE":"3268323","ELEMENT_SET_NO":"999","OBJECT_NAME":"STARLINK-1167","MEAN_MOTION_DDOT":"0.0000000000000","RA_OF_ASC_NODE":"249.1616","REV_AT_EPOCH":"10767","NORAD_CAT_ID":"45071","BSTAR":"0.00007422900000"},{"CLASSIFICATION_TYPE":"U","SEMIMAJOR_AXIS":"6925.354","REF_FRAME":"TEME","COUNTRY_CODE":"US","TLE_LINE2":"2 45072  53.0523 249.1318 0002208  66.5958 293.5263 15.06398160107677","RCS_SIZE":"LARGE","CENTER_NAME":"EARTH","PERIOD":"95.592","OBJECT_ID":"2020-006AE","DECAY_DATE":null,"MEAN_MOTION_DOT":"0.00000976","OBJECT_TYPE":"PAYLOAD","APOAPSIS":"548.748","MEAN_ANOMALY":"293.5263","EPOCH":"2022-01-09T22:02:35.747520","ARG_OF_PERICENTER":"66.5958","OBJECT_NAME":"STARLINK-1168","RA_OF_ASC_NODE":"249.1318","MEAN_MOTION_DDOT":"0.0000000000000","ELEMENT_SET_NO":"999","FILE":"3268323","TIME_SYSTEM":"UTC","BSTAR":"0.00008441200000","NORAD_CAT_ID":"45072","REV_AT_EPOCH":"10767","GP_ID":"193556880","LAUNCH_DATE":"2020-01-29","MEAN_ELEMENT_THEORY":"SGP4","SITE":"AFETR","INCLINATION":"53.0523","ECCENTRICITY":"0.00022080","EPHEMERIS_TYPE":"0","MEAN_MOTION":"15.06398160","TLE_LINE1":"1 45072U 20006AE  22009.91846930  .00000976  00000-0  84412-4 0  9994","PERIAPSIS":"545.690"},{"BSTAR":"-0.00003079500000","NORAD_CAT_ID":"45073","REV_AT_EPOCH":"10766","RA_OF_ASC_NODE":"249.3136","MEAN_MOTION_DDOT":"0.0000000000000","OBJECT_NAME":"STARLINK-1170","FILE":"3268323","TIME_SYSTEM":"UTC","ELEMENT_SET_NO":"999","TLE_LINE1":"1 45073U 20006AF  22009.87791451 -.00000740  00000-0 -30795-4 0  9993","PERIAPSIS":"545.719","EPHEMERIS_TYPE":"0","MEAN_MOTION":"15.06396975","LAUNCH_DATE":"2020-01-29","GP_ID":"193556613","ECCENTRICITY":"0.00021710","MEAN_ELEMENT_THEORY":"SGP4","SITE":"AFETR","INCLINATION":"53.0536","COUNTRY_CODE":"US","TLE_LINE2":"2 45073  53.0536 249.3136 0002171  61.3188 298.8019 15.06396975107667","CLASSIFICATION_TYPE":"U","SEMIMAJOR_AXIS":"6925.358","REF_FRAME":"TEME","MEAN_ANOMALY":"298.8019","OBJECT_TYPE":"PAYLOAD","APOAPSIS":"548.726","ARG_OF_PERICENTER":"61.3188","EPOCH":"2022-01-09T21:04:11.813664","OBJECT_ID":"2020-006AF","RCS_SIZE":"LARGE","CENTER_NAME":"EARTH","PERIOD":"95.592","DECAY_DATE":null,"MEAN_MOTION_DOT":"-0.00000740"},{"REV_AT_EPOCH":"10767","NORAD_CAT_ID":"45074","BSTAR":"0.00009185600000","FILE":"3268323","TIME_SYSTEM":"UTC","ELEMENT_SET_NO":"999","OBJECT_NAME":"STARLINK-1172","MEAN_MOTION_DDOT":"0.0000000000000","RA_OF_ASC_NODE":"249.1024","MEAN_MOTION":"15.06395236","EPHEMERIS_TYPE":"0","PERIAPSIS":"545.565","TLE_LINE1":"1 45074U 20006AG  22009.92953412  .00001086  00000-0  91856-4 0  9994","INCLINATION":"53.0544","SITE":"AFETR","MEAN_ELEMENT_THEORY":"SGP4","ECCENTRICITY":"0.00024020","GP_ID":"193555379","LAUNCH_DATE":"2020-01-29","TLE_LINE2":"2 45074  53.0544 249.1024 0002402  59.9826 300.1401 15.06395236107672","COUNTRY_CODE":"US","REF_FRAME":"TEME","SEMIMAJOR_AXIS":"6925.363","CLASSIFICATION_TYPE":"U","EPOCH":"2022-01-09T22:18:31.747968","ARG_OF_PERICENTER":"59.9826","APOAPSIS":"548.892","OBJECT_TYPE":"PAYLOAD","MEAN_ANOMALY":"300.1401","MEAN_MOTION_DOT":"0.00001086","DECAY_DATE":null,"RCS_SIZE":"LARGE","CENTER_NAME":"EARTH","PERIOD":"95.592","OBJECT_ID":"2020-006AG"},{"EPHEMERIS_TYPE":"0","MEAN_MOTION":"15.06394852","PERIAPSIS":"545.664","TLE_LINE1":"1 45075U 20006AH  22009.89634638 -.00000905  00000-0 -41868-4 0  9996","MEAN_ELEMENT_THEORY":"SGP4","INCLINATION":"53.0527","SITE":"AFETR","ECCENTRICITY":"0.00022610","GP_ID":"193555629","LAUNCH_DATE":"2020-01-29","REV_AT_EPOCH":"10767","BSTAR":"-0.00004186800000","NORAD_CAT_ID":"45075","FILE":"3268323","TIME_SYSTEM":"UTC","ELEMENT_SET_NO":"999","OBJECT_NAME":"STARLINK-1174","MEAN_MOTION_DDOT":"0.0000000000000","RA_OF_ASC_NODE":"249.2463","EPOCH":"2022-01-09T21:30:44.327232","ARG_OF_PERICENTER":"67.7425","OBJECT_TYPE":"PAYLOAD","APOAPSIS":"548.795","MEAN_ANOMALY":"292.3803","DECAY_DATE":null,"MEAN_MOTION_DOT":"-0.00000905","PERIOD":"95.592","RCS_SIZE":"LARGE","CENTER_NAME":"EARTH","OBJECT_ID":"2020-006AH","TLE_LINE2":"2 45075  53.0527 249.2463 0002261  67.7425 292.3803 15.06394852107678","COUNTRY_CODE":"US","SEMIMAJOR_AXIS":"6925.364","REF_FRAME":"TEME","CLASSIFICATION_TYPE":"U"},{"MEAN_MOTION":"15.06391439","EPHEMERIS_TYPE":"0","TLE_LINE1":"1 45076U 20006AJ  22009.83737935  .00001126  00000-0  94503-4 0  9993","PERIAPSIS":"545.724","INCLINATION":"53.0539","SITE":"AFETR","MEAN_ELEMENT_THEORY":"SGP4","ECCENTRICITY":"0.00021890","GP_ID":"193556381","LAUNCH_DATE":"2020-01-29","REV_AT_EPOCH":"10766","NORAD_CAT_ID":"45076","BSTAR":"0.00009450300000","TIME_SYSTEM":"UTC","FILE":"3268323","ELEMENT_SET_NO":"999","OBJECT_NAME":"STARLINK-1180","RA_OF_ASC_NODE":"249.5015","MEAN_MOTION_DDOT":"0.0000000000000","EPOCH":"2022-01-09T20:05:49.575840","ARG_OF_PERICENTER":"64.1874","APOAPSIS":"548.756","OBJECT_TYPE":"PAYLOAD","MEAN_ANOMALY":"295.9340","MEAN_MOTION_DOT":"0.00001126","DECAY_DATE":null,"PERIOD":"95.593","RCS_SIZE":"LARGE","CENTER_NAME":"EARTH","OBJECT_ID":"2020-006AJ","TLE_LINE2":"2 45076  53.0539 249.5015 0002189  64.1874 295.9340 15.06391439107668","COUNTRY_CODE":"US","REF_FRAME":"TEME","SEMIMAJOR_AXIS":"6925.375","CLASSIFICATION_TYPE":"U"},{"REV_AT_EPOCH":"10824","BSTAR":"0.00416360000000","NORAD_CAT_ID":"45077","FILE":"3268323","ELEMENT_SET_NO":"999","TIME_SYSTEM":"UTC","OBJECT_NAME":"STARLINK-1182","MEAN_MOTION_DDOT":"0.0000000000000","RA_OF_ASC_NODE":"208.2003","EPHEMERIS_TYPE":"0","MEAN_MOTION":"15.62069020","TLE_LINE1":"1 45077U 20006AK  22009.81057649  .00389047  00000-0  41636-2 0  9997","PERIAPSIS":"380.498","MEAN_ELEMENT_THEORY":"SGP4","SITE":"AFETR","INCLINATION":"53.0536","ECCENTRICITY":"0.00017540","GP_ID":"193557113","LAUNCH_DATE":"2020-01-29","TLE_LINE2":"2 45077  53.0536 208.2003 0001754  33.9351 326.1775 15.62069020108240","COUNTRY_CODE":"US","SEMIMAJOR_AXIS":"6759.818","REF_FRAME":"TEME","CLASSIFICATION_TYPE":"U","EPOCH":"2022-01-09T19:27:13.808736","ARG_OF_PERICENTER":"33.9351","OBJECT_TYPE":"PAYLOAD","APOAPSIS":"382.869","MEAN_ANOMALY":"326.1775","DECAY_DATE":null,"MEAN_MOTION_DOT":"0.00389047","PERIOD":"92.185","RCS_SIZE":"LARGE","CENTER_NAME":"EARTH","OBJECT_ID":"2020-006AK"},{"CLASSIFICATION_TYPE":"U","SEMIMAJOR_AXIS":"6925.351","REF_FRAME":"TEME","COUNTRY_CODE":"US","TLE_LINE2":"2 45078  53.0564 249.1275 0002236  88.8819 271.2426 15.06399099107669","PERIOD":"95.592","RCS_SIZE":"LARGE","CENTER_NAME":"EARTH","OBJECT_ID":"2020-006AL","MEAN_MOTION_DOT":"-0.00000434","DECAY_DATE":null,"OBJECT_TYPE":"PAYLOAD","APOAPSIS":"548.765","MEAN_ANOMALY":"271.2426","EPOCH":"2022-01-09T22:07:53.400576","ARG_OF_PERICENTER":"88.8819","OBJECT_NAME":"STARLINK-1177","MEAN_MOTION_DDOT":"0.0000000000000","RA_OF_ASC_NODE":"249.1275","TIME_SYSTEM":"UTC","FILE":"3268323","ELEMENT_SET_NO":"999","BSTAR":"-0.00001019300000","NORAD_CAT_ID":"45078","REV_AT_EPOCH":"10766","GP_ID":"193555879","LAUNCH_DATE":"2020-01-29","MEAN_ELEMENT_THEORY":"SGP4","SITE":"AFETR","INCLINATION":"53.0564","ECCENTRICITY":"0.00022360","EPHEMERIS_TYPE":"0","MEAN_MOTION":"15.06399099","TLE_LINE1":"1 45078U 20006AL  22009.92214584 -.00000434  00000-0 -10193-4 0  9991","PERIAPSIS":"545.668"},{"CLASSIFICATION_TYPE":"U","SEMIMAJOR_AXIS":"6925.370","REF_FRAME":"TEME","COUNTRY_CODE":"US","TLE_LINE2":"2 45079  53.0531 249.2211 0002317  61.0614 299.0607 15.06393085107669","CENTER_NAME":"EARTH","RCS_SIZE":"LARGE","PERIOD":"95.593","OBJECT_ID":"2020-006AM","MEAN_MOTION_DOT":"0.00001043","DECAY_DATE":null,"OBJECT_TYPE":"PAYLOAD","APOAPSIS":"548.839","MEAN_ANOMALY":"299.0607","EPOCH":"2022-01-09T21:36:03.660768","ARG_OF_PERICENTER":"61.0614","OBJECT_NAME":"STARLINK-1149","MEAN_MOTION_DDOT":"0.0000000000000","RA_OF_ASC_NODE":"249.2211","ELEMENT_SET_NO":"999","FILE":"3268323","TIME_SYSTEM":"UTC","BSTAR":"0.00008896200000","NORAD_CAT_ID":"45079","REV_AT_EPOCH":"10766","GP_ID":"193556129","LAUNCH_DATE":"2020-01-29","MEAN_ELEMENT_THEORY":"SGP4","INCLINATION":"53.0531","SITE":"AFETR","ECCENTRICITY":"0.00023170","EPHEMERIS_TYPE":"0","MEAN_MOTION":"15.06393085","TLE_LINE1":"1 45079U 20006AM  22009.90004237  .00001043  00000-0  88962-4 0  9996","PERIAPSIS":"545.630"}];
